[{"OBJECT_NAME":"STARLINK-5839","OBJECT_ID":"2023-088D","EPOCH":"2026-03-09T11:13:10.299648","MEAN_MOTION":15.02536837,"ECCENTRICITY":0.00012744,"INCLINATION":43.0035,"RA_OF_ASC_NODE":108.9107,"ARG_OF_PERICENTER":267.0676,"MEAN_ANOMALY":93.002,"EPHEMERIS_TYPE":0,"CLASSIFICATION_TYPE":"U","NORAD_CAT_ID":57051,"ELEMENT_SET_NO":999,"REV_AT_EPOCH":15033,"BSTAR":2.0696808e-5,"MEAN_MOTION_DOT":7.6e-7,"MEAN_MOTION_DDOT":0},{"OBJECT_NAME":"CZ-6A DEB","OBJECT_ID":"2022-151DD","EPOCH":"2026-03-09T17:22:01.111008","MEAN_MOTION":14.86690016,"ECCENTRICITY":0.00876761,"INCLINATION":98.4579,"RA_OF_ASC_NODE":137.3593,"ARG_OF_PERICENTER":94.708,"MEAN_ANOMALY":266.4154,"EPHEMERIS_TYPE":0,"CLASSIFICATION_TYPE":"U","NORAD_CAT_ID":54358,"ELEMENT_SET_NO":999,"REV_AT_EPOCH":17717,"BSTAR":0.0022043381,"MEAN_MOTION_DOT":0.00021004,"MEAN_MOTION_DDOT":0}]
